{"type": "FeatureCollection", "features": [ {"type": "Feature", "properties": {"norad_id": 66876, "name": "STARLINK-35702", "group": "last-30-days", "lat": -7.157427145337425, "lon": 88.33655480280322, "alt_km": 336.8249504245796, "timestamp": "2025-12-16T23:36:34.924995+00:00", "meta": {"OBJECT_NAME": "STARLINK-35702", "OBJECT_ID": "2025-281AE", "EPOCH": "2025-12-16T06:00:02.999808", "MEAN_MOTION": 15.80458078, "ECCENTRICITY": 0.00013012, "INCLINATION": 43.0003, "RA_OF_ASC_NODE": 100.5602, "ARG_OF_PERICENTER": 278.0479, "MEAN_ANOMALY": 215.4001, "EPHEMERIS_TYPE": 0, "CLASSIFICATION_TYPE": "U", "NORAD_CAT_ID": 66876, "ELEMENT_SET_NO": 999, "REV_AT_EPOCH": 199, "BSTAR": -0.0097424421, "MEAN_MOTION_DOT": -0.01657934, "MEAN_MOTION_DDOT": 0}, "tle": {"line1": "1 66876U 25281AE  25350.25003472 -.01657934  00000+0 -97424-2 0  9993", "line2": "2 66876  43.0003 100.5602 0001301 278.0479 215.4001 15.80458078  1999"}}, "geometry": {"type": "Point", "coordinates": [88.33655480280322, -7.157427145337425]}}, {"type": "Feature", "properties": {"norad_id": 66877, "name": "ZQ-3 R/B", "group": "last-30-days", "lat": 12.600738326344548, "lon": 49.688165739554925, "alt_km": 1096.8825731127245, "timestamp": "2025-12-16T23:36:34.925005+00:00", "meta": {"OBJECT_NAME": "ZQ-3 R/B", "OBJECT_ID": "2025-282A", "EPOCH": "2025-12-16T07:11:08.720736", "MEAN_MOTION": 14.66866709, "ECCENTRICITY": 0.07484442, "INCLINATION": 56.9512, "RA_OF_ASC_NODE": 43.972, "ARG_OF_PERICENTER": 226.1521, "MEAN_ANOMALY": 127.528, "EPHEMERIS_TYPE": 0, "CLASSIFICATION_TYPE": "U", "NORAD_CAT_ID": 66877, "ELEMENT_SET_NO": 999, "REV_AT_EPOCH": 191, "BSTAR": 0.0002049951, "MEAN_MOTION_DOT": 0.01073213, "MEAN_MOTION_DDOT": 7.608496e-06}, "tle": {"line1": "1 66877U 25282A   25350.29940649  .01073213  76085-5  20500-3 0  9999", "line2": "2 66877  56.9512  43.9720 0748444 226.1521 127.5280 14.66866709  1918"}}, "geometry": {"type": "Point", "coordinates": [49.688165739554925, 12.600738326344548]}}, {"type": "Feature", "properties": {"norad_id": 66878, "name": "STARLINK-35866", "group": "last-30-days", "lat": 6.486103498798563, "lon": 57.35590192201616, "alt_km": 312.83520689119905, "timestamp": "2025-12-16T23:36:34.925016+00:00", "meta": {"OBJECT_NAME": "STARLINK-35866", "OBJECT_ID": "2025-283A", "EPOCH": "2025-12-16T06:56:20.585760", "MEAN_MOTION": 15.85723836, "ECCENTRICITY": 7.912e-05, "INCLINATION": 53.1553, "RA_OF_ASC_NODE": 55.9741, "ARG_OF_PERICENTER": 310.0922, "MEAN_ANOMALY": 50.0033, "EPHEMERIS_TYPE": 0, "CLASSIFICATION_TYPE": "U", "NORAD_CAT_ID": 66878, "ELEMENT_SET_NO": 999, "REV_AT_EPOCH": 301, "BSTAR": 0.0012182646, "MEAN_MOTION_DOT": 0.00312674, "MEAN_MOTION_DDOT": 0}, "tle": {"line1": "1 66878U 25283A   25350.28912715  .00312674  00000+0  12183-2 0  9994", "line2": "2 66878  53.1553  55.9741 0000791 310.0922  50.0033 15.85723836  3017"}}, "geometry": {"type": "Point", "coordinates": [57.35590192201616, 6.486103498798563]}}, {"type": "Feature", "properties": {"norad_id": 66879, "name": "STARLINK-35749", "group": "last-30-days", "lat": 11.005130898678331, "lon": 60.83938740458676, "alt_km": 316.28872667081214, "timestamp": "2025-12-16T23:36:34.925027+00:00", "meta": {"OBJECT_NAME": "STARLINK-35749", "OBJECT_ID": "2025-283B", "EPOCH": "2025-12-16T06:54:27.611712", "MEAN_MOTION": 15.85840886, "ECCENTRICITY": 8.617e-05, "INCLINATION": 53.1553, "RA_OF_ASC_NODE": 55.9657, "ARG_OF_PERICENTER": 333.2835, "MEAN_ANOMALY": 26.8146, "EPHEMERIS_TYPE": 0, "CLASSIFICATION_TYPE": "U", "NORAD_CAT_ID": 66879, "ELEMENT_SET_NO": 999, "REV_AT_EPOCH": 301, "BSTAR": -0.0036252252, "MEAN_MOTION_DOT": -0.00825517, "MEAN_MOTION_DDOT": 0}, "tle": {"line1": "1 66879U 25283B   25350.28781958 -.00825517  00000+0 -36252-2 0  9998", "line2": "2 66879  53.1553  55.9657 0000861 333.2835  26.8146 15.85840886  3013"}}, "geometry": {"type": "Point", "coordinates": [60.83938740458676, 11.005130898678331]}}, {"type": "Feature", "properties": {"norad_id": 66880, "name": "STARLINK-35844", "group": "last-30-days", "lat": 8.344564276980098, "lon": 58.77594244025414, "alt_km": 318.79165831030514, "timestamp": "2025-12-16T23:36:34.925041+00:00", "meta": {"OBJECT_NAME": "STARLINK-35844", "OBJECT_ID": "2025-283C", "EPOCH": "2025-12-16T06:54:58.450464", "MEAN_MOTION": 15.86195873, "ECCENTRICITY": 0.00089822, "INCLINATION": 53.1554, "RA_OF_ASC_NODE": 55.968, "ARG_OF_PERICENTER": 295.876, "MEAN_ANOMALY": 64.1339, "EPHEMERIS_TYPE": 0, "CLASSIFICATION_TYPE": "U", "NORAD_CAT_ID": 66880, "ELEMENT_SET_NO": 999, "REV_AT_EPOCH": 301, "BSTAR": -0.0088806291, "MEAN_MOTION_DOT": -0.01978766, "MEAN_MOTION_DDOT": 0}, "tle": {"line1": "1 66880U 25283C   25350.28817651 -.01978766  00000+0 -88806-2 0  9998", "line2": "2 66880  53.1554  55.9680 0008982 295.8760  64.1339 15.86195873  3013"}}, "geometry": {"type": "Point", "coordinates": [58.77594244025414, 8.344564276980098]}}, {"type": "Feature", "properties": {"norad_id": 66881, "name": "STARLINK-35860", "group": "last-30-days", "lat": 12.921044698199905, "lon": 62.35467851468072, "alt_km": 315.9751790498103, "timestamp": "2025-12-16T23:36:34.925054+00:00", "meta": {"OBJECT_NAME": "STARLINK-35860", "OBJECT_ID": "2025-283D", "EPOCH": "2025-12-16T06:53:50.819136", "MEAN_MOTION": 15.85857166, "ECCENTRICITY": 0.00010085, "INCLINATION": 53.1549, "RA_OF_ASC_NODE": 55.9623, "ARG_OF_PERICENTER": 323.7744, "MEAN_ANOMALY": 36.3213, "EPHEMERIS_TYPE": 0, "CLASSIFICATION_TYPE": "U", "NORAD_CAT_ID": 66881, "ELEMENT_SET_NO": 999, "REV_AT_EPOCH": 301, "BSTAR": -0.0037314989, "MEAN_MOTION_DOT": -0.00848216, "MEAN_MOTION_DDOT": 0}, "tle": {"line1": "1 66881U 25283D   25350.28739374 -.00848216  00000+0 -37315-2 0  9998", "line2": "2 66881  53.1549  55.9623 0001008 323.7744  36.3213 15.85857166  3011"}}, "geometry": {"type": "Point", "coordinates": [62.35467851468072, 12.921044698199905]}}, {"type": "Feature", "properties": {"norad_id": 66882, "name": "STARLINK-35912", "group": "last-30-days", "lat": 15.39629258575755, "lon": 64.36036749485092, "alt_km": 313.69286343941985, "timestamp": "2025-12-16T23:36:34.925064+00:00", "meta": {"OBJECT_NAME": "STARLINK-35912", "OBJECT_ID": "2025-283E", "EPOCH": "2025-12-16T06:53:12.485184", "MEAN_MOTION": 15.85769344, "ECCENTRICITY": 0.00019982, "INCLINATION": 53.1553, "RA_OF_ASC_NODE": 55.9606, "ARG_OF_PERICENTER": 323.9776, "MEAN_ANOMALY": 36.1114, "EPHEMERIS_TYPE": 0, "CLASSIFICATION_TYPE": "U", "NORAD_CAT_ID": 66882, "ELEMENT_SET_NO": 999, "REV_AT_EPOCH": 301, "BSTAR": -0.00177632, "MEAN_MOTION_DOT": -0.00422323, "MEAN_MOTION_DDOT": 0}, "tle": {"line1": "1 66882U 25283E   25350.28695006 -.00422323  00000+0 -17763-2 0  9994", "line2": "2 66882  53.1553  55.9606 0001998 323.9776  36.1114 15.85769344  3011"}}, "geometry": {"type": "Point", "coordinates": [64.36036749485092, 15.39629258575755]}}, {"type": "Feature", "properties": {"norad_id": 66883, "name": "STARLINK-35947", "group": "last-30-days", "lat": 15.671448904361869, "lon": 64.58655558774043, "alt_km": 316.1610692819477, "timestamp": "2025-12-16T23:36:34.925074+00:00", "meta": {"OBJECT_NAME": "STARLINK-35947", "OBJECT_ID": "2025-283F", "EPOCH": "2025-12-16T06:52:34.257504", "MEAN_MOTION": 15.86495118, "ECCENTRICITY": 0.00143553, "INCLINATION": 53.1553, "RA_OF_ASC_NODE": 55.9566, "ARG_OF_PERICENTER": 313.3277, "MEAN_ANOMALY": 46.6551, "EPHEMERIS_TYPE": 0, "CLASSIFICATION_TYPE": "U", "NORAD_CAT_ID": 66883, "ELEMENT_SET_NO": 999, "REV_AT_EPOCH": 303, "BSTAR": -0.011206909, "MEAN_MOTION_DOT": -0.02460974, "MEAN_MOTION_DDOT": 0}, "tle": {"line1": "1 66883U 25283F   25350.28650761 -.02460974  00000+0 -11207-1 0  9996", "line2": "2 66883  53.1553  55.9566 0014355 313.3277  46.6551 15.86495118  3036"}}, "geometry": {"type": "Point", "coordinates": [64.58655558774043, 15.671448904361869]}}, {"type": "Feature", "properties": {"norad_id": 66884, "name": "STARLINK-36057", "group": "last-30-days", "lat": 28.277620456867652, "lon": 76.19711110172402, "alt_km": 307.24378565548795, "timestamp": "2025-12-16T23:36:34.925084+00:00", "meta": {"OBJECT_NAME": "STARLINK-36057", "OBJECT_ID": "2025-283G", "EPOCH": "2025-12-16T05:20:25.176768", "MEAN_MOTION": 15.88232476, "ECCENTRICITY": 0.00105, "INCLINATION": 53.1549, "RA_OF_ASC_NODE": 56.2679, "ARG_OF_PERICENTER": 238.2562, "MEAN_ANOMALY": 121.7442, "EPHEMERIS_TYPE": 0, "CLASSIFICATION_TYPE": "U", "NORAD_CAT_ID": 66884, "ELEMENT_SET_NO": 999, "REV_AT_EPOCH": 300, "BSTAR": 0.0022938557, "MEAN_MOTION_DOT": 0.00698018, "MEAN_MOTION_DDOT": 0}, "tle": {"line1": "1 66884U 25283G   25350.22251362  .00698018  00000+0  22939-2 0  9998", "line2": "2 66884  53.1549  56.2679 0010500 238.2562 121.7442 15.88232476  3000"}}, "geometry": {"type": "Point", "coordinates": [76.19711110172402, 28.277620456867652]}}, {"type": "Feature", "properties": {"norad_id": 66885, "name": "STARLINK-35954", "group": "last-30-days", "lat": 18.175496153596775, "lon": 66.68705878696836, "alt_km": 316.25896879435186, "timestamp": "2025-12-16T23:36:34.925097+00:00", "meta": {"OBJECT_NAME": "STARLINK-35954", "OBJECT_ID": "2025-283H", "EPOCH": "2025-12-16T06:51:58.163040", "MEAN_MOTION": 15.86623204, "ECCENTRICITY": 0.00083276, "INCLINATION": 53.1548, "RA_OF_ASC_NODE": 55.9531, "ARG_OF_PERICENTER": 316.9485, "MEAN_ANOMALY": 43.0888, "EPHEMERIS_TYPE": 0, "CLASSIFICATION_TYPE": "U", "NORAD_CAT_ID": 66885, "ELEMENT_SET_NO": 999, "REV_AT_EPOCH": 301, "BSTAR": -0.0099153014, "MEAN_MOTION_DOT": -0.02214088, "MEAN_MOTION_DDOT": 0}, "tle": {"line1": "1 66885U 25283H   25350.28608985 -.02214088  00000+0 -99153-2 0  9999", "line2": "2 66885  53.1548  55.9531 0008327 316.9485  43.0888 15.86623204  3017"}}, "geometry": {"type": "Point", "coordinates": [66.68705878696836, 18.175496153596775]}}]}